OBJECT_NAME,OBJECT_ID,EPOCH,MEAN_MOTION,ECCENTRICITY,INCLINATION,RA_OF_ASC_NODE,ARG_OF_PERICENTER,MEAN_ANOMALY,EPHEMERIS_TYPE,CLASSIFICATION_TYPE,NORAD_CAT_ID,ELEMENT_SET_NO,REV_AT_EPOCH,BSTAR,MEAN_MOTION_DOT,MEAN_MOTION_DDOT
SWARM A,2013-067B,2026-07-01T03:43:40.199232,15.51217468,.0003205,87.3309,51.0506,97.5428,262.6197,0,U,39452,999,70841,.20524E-3,.12044E-3,0
SWARM C,2013-067C,2026-07-01T03:43:31.497024,15.51216369,.0003197,87.3308,49.6315,97.1807,262.9818,0,U,39453,999,70837,.20676E-3,.12132E-3,0
BRITE-CA1 (TORONTO),2014-033L,2026-07-01T04:05:05.292096,14.72699830,.007753,97.9757,310.8417,231.5053,127.9184,0,U,40020,999,64427,.16715E-3,.1063E-4,0
OCO 2,2014-035A,2026-07-01T03:56:11.643360,14.57122733,.0001496,98.2020,123.2443,82.6269,277.5099,0,U,40059,999,63808,.11067E-3,.454E-5,0
BRITE-PL2 (HEWELIUSZ),2014-049B,2026-07-01T02:20:27.500928,14.94644692,.0015147,97.9111,294.2059,65.9668,294.3135,0,U,40119,999,64352,.16817E-3,.1766E-4,0
MMS 1,2015-011A,2026-07-01T04:00:03.000096,0.28308139,.8315811,72.2494,348.6462,167.5849,285.1086,0,U,40482,999,139,0,-.982E-5,0
MMS 2,2015-011B,2026-07-01T04:00:03.000096,0.28308119,.8318618,72.2530,348.6453,167.5882,285.0985,0,U,40483,999,139,0,-.982E-5,0
MMS 3,2015-011C,2026-07-01T04:00:03.000096,0.28303379,.8317026,72.2533,348.6572,167.5923,285.0846,0,U,40484,999,139,0,-.982E-5,0
MMS 4,2015-011D,2026-07-01T04:00:03.000096,0.28308181,.8316894,72.2492,348.6403,167.6055,285.0660,0,U,40485,999,139,0,-.982E-5,0
ASTROSAT,2015-052A,2026-07-01T00:24:26.251200,14.82531161,.0008481,5.9976,55.7929,235.1393,124.7937,0,U,40930,999,58188,.12694E-3,.1716E-4,0
DAMPE,2015-078A,2026-07-01T03:46:05.085984,15.30820199,.0013077,97.4553,187.6926,33.4662,326.7402,0,U,41173,999,58668,.39013E-4,.1086E-4,0
PISAT,2016-059B,2026-06-30T23:18:48.464064,14.69007441,.0029555,97.8181,181.8319,158.6922,201.5522,0,U,41784,999,52176,.18071E-3,.1019E-4,0
HXMT (HUIYAN),2017-034A,2026-07-01T05:03:10.876320,15.18578607,.0032616,43.0145,104.9492,235.5911,124.1853,0,U,42758,999,49979,.23367E-3,.4744E-4,0
FLYING LAPTOP,2017-042G,2026-07-01T04:23:51.544608,15.01232383,.002,97.4748,337.1825,76.9523,283.3933,0,U,42831,999,48855,.22183E-3,.2802E-4,0
ZHANGHENG 1-01 (CSES-1),2018-015C,2026-07-01T05:14:48.068160,15.20992122,.0017668,97.6878,348.1565,214.6058,145.4029,0,U,43194,999,46677,.39792E-3,.8788E-4,0
SALSAT,2020-068K,2026-07-01T00:16:38.041824,15.29994176,.0007968,97.8843,185.9193,248.9011,111.1377,0,U,46495,999,31747,.33118E-3,.9542E-4,0
IXPE,2021-121A,2026-07-01T04:00:03.000096,15.10376635,.0006941,0.2277,212.0155,292.5831,281.1226,0,U,49954,999,572,.73015E-3,.13298E-3,0
SMILE,2026-109A,2026-06-07T09:11:54.544416,7.54049028,.3310191,69.9787,209.3069,288.5544,45.7342,0,U,69123,999,248,-.36778157E-3,-.41E-6,0
