SWARM A                 
1 39452U 13067B   26182.15532638  .00012044  00000+0  20524-3 0  9998
2 39452  87.3309  51.0506 0003205  97.5428 262.6197 15.51217468708410
SWARM C                 
1 39453U 13067C   26182.15522566  .00012132  00000+0  20676-3 0  9994
2 39453  87.3308  49.6315 0003197  97.1807 262.9818 15.51216369708375
BRITE-CA1 (TORONTO)     
1 40020U 14033L   26182.17020014  .00001063  00000+0  16715-3 0  9993
2 40020  97.9757 310.8417 0077530 231.5053 127.9184 14.72699830644271
OCO 2                   
1 40059U 14035A   26182.16402365  .00000454  00000+0  11067-3 0  9997
2 40059  98.2020 123.2443 0001496  82.6269 277.5099 14.57122733638082
BRITE-PL2 (HEWELIUSZ)   
1 40119U 14049B   26182.09754052  .00001766  00000+0  16817-3 0  9999
2 40119  97.9111 294.2059 0015147  65.9668 294.3135 14.94644692643520
MMS 1                   
1 40482U 15011A   26182.16670139 -.00000982  00000+0  00000+0 0  9996
2 40482  72.2494 348.6462 8315811 167.5849 285.1086  0.28308139  1395
MMS 2                   
1 40483U 15011B   26182.16670139 -.00000982  00000+0  00000+0 0  9997
2 40483  72.2530 348.6453 8318618 167.5882 285.0985  0.28308119  1397
MMS 3                   
1 40484U 15011C   26182.16670139 -.00000982  00000+0  00000+0 0  9998
2 40484  72.2533 348.6572 8317026 167.5923 285.0846  0.28303379  1390
MMS 4                   
1 40485U 15011D   26182.16670139 -.00000982  00000+0  00000+0 0  9999
2 40485  72.2492 348.6403 8316894 167.6055 285.0660  0.28308181  1397
ASTROSAT                
1 40930U 15052A   26182.01697050  .00001716  00000+0  12694-3 0  9995
2 40930   5.9976  55.7929 0008481 235.1393 124.7937 14.82531161581883
DAMPE                   
1 41173U 15078A   26182.15700331  .00001086  00000+0  39013-4 0  9990
2 41173  97.4553 187.6926 0013077  33.4662 326.7402 15.30820199586687
PISAT                   
1 41784U 16059B   26181.97139426  .00001019  00000+0  18071-3 0  9994
2 41784  97.8181 181.8319 0029555 158.6922 201.5522 14.69007441521764
HXMT (HUIYAN)           
1 42758U 17034A   26182.21054255  .00004744  00000+0  23367-3 0  9996
2 42758  43.0145 104.9492 0032616 235.5911 124.1853 15.18578607499798
FLYING LAPTOP           
1 42831U 17042G   26182.18323547  .00002802  00000+0  22183-3 0  9994
2 42831  97.4748 337.1825 0020000  76.9523 283.3933 15.01232383488551
ZHANGHENG 1-01 (CSES-1) 
1 43194U 18015C   26182.21861190  .00008788  00000+0  39792-3 0  9996
2 43194  97.6878 348.1565 0017668 214.6058 145.4029 15.20992122466772
SALSAT                  
1 46495U 20068K   26182.01155141  .00009542  00000+0  33118-3 0  9999
2 46495  97.8843 185.9193 0007968 248.9011 111.1377 15.29994176317476
IXPE                    
1 49954U 21121A   26182.16670139  .00013298  00000+0  73015-3 0  9991
2 49954   0.2277 212.0155 0006941 292.5831 281.1226 15.10376635  5720
SMILE                   
1 69123U 26109A   26158.38327019 -.00000041  00000+0 -36778-3 0  9994
2 69123  69.9787 209.3069 3310191 288.5544  45.7342  7.54049028  2480
